{
  "type": "FeatureCollection",
  "features": [
    {
      "type": "Feature",
      "properties": {
        "norad_id": 19071,
        "name": "OSCAR 32",
        "group": "nnss",
        "lat": -84.33984370764765,
        "lon": 19.46157183771392,
        "alt_km": 1134.4950662151214,
        "timestamp": "2025-12-02T07:10:09.383956+00:00",
        "meta_object_name": "OSCAR 32",
        "meta_object_id": "1988-033B",
        "meta_epoch": "2025-12-01T15:55:18.699168",
        "meta_mean_motion": 13.27951626,
        "meta_eccentricity": 0.01874368,
        "meta_inclination": 90.3229,
        "meta_ra_of_asc_node": 16.18,
        "meta_arg_of_pericenter": 197.5975,
        "meta_mean_anomaly": 280.5511,
        "meta_ephemeris_type": 0,
        "meta_classification_type": "U",
        "meta_norad_cat_id": 19071,
        "meta_element_set_no": 999,
        "meta_rev_at_epoch": 82118,
        "meta_bstar": 0.00016826456,
        "meta_mean_motion_dot": 9.2e-07,
        "meta_mean_motion_ddot": 0,
        "tle_line1": "1 19071U 88033B   25335.66341087  .00000092  00000+0  16826-3 0  9999",
        "tle_line2": "2 19071  90.3229  16.1800 0187436 197.5975 280.5511 13.27951626821187"
      },
      "geometry": {
        "type": "Point",
        "coordinates": [
          19.46157183771392,
          -84.33984370764765
        ]
      }
    },
    {
      "type": "Feature",
      "properties": {
        "norad_id": 19223,
        "name": "NOVA 2",
        "group": "nnss",
        "lat": -61.278883654718186,
        "lon": 78.26210964515022,
        "alt_km": 1187.329178733501,
        "timestamp": "2025-12-02T07:10:09.383973+00:00",
        "meta_object_name": "NOVA 2",
        "meta_object_id": "1988-052A",
        "meta_epoch": "2025-12-01T19:22:23.856384",
        "meta_mean_motion": 13.2293377,
        "meta_eccentricity": 0.0031453,
        "meta_inclination": 89.9873,
        "meta_ra_of_asc_node": 78.2859,
        "meta_arg_of_pericenter": 46.3277,
        "meta_mean_anomaly": 73.3591,
        "meta_ephemeris_type": 0,
        "meta_classification_type": "U",
        "meta_norad_cat_id": 19223,
        "meta_element_set_no": 999,
        "meta_rev_at_epoch": 80803,
        "meta_bstar": 0.00011217,
        "meta_mean_motion_dot": 5.6e-07,
        "meta_mean_motion_ddot": 0,
        "tle_line1": "1 19223U 88052A   25335.80722056  .00000056  00000+0  11217-3 0  9993",
        "tle_line2": "2 19223  89.9873  78.2859 0031453  46.3277  73.3591 13.22933770808031"
      },
      "geometry": {
        "type": "Point",
        "coordinates": [
          78.26210964515022,
          -61.278883654718186
        ]
      }
    },
    {
      "type": "Feature",
      "properties": {
        "norad_id": 19419,
        "name": "OSCAR 25",
        "group": "nnss",
        "lat": -2.6979814019793347,
        "lon": 20.211091397454762,
        "alt_km": 1091.4005440422507,
        "timestamp": "2025-12-02T07:10:09.383984+00:00",
        "meta_object_name": "OSCAR 25",
        "meta_object_id": "1988-074A",
        "meta_epoch": "2025-12-01T15:39:19.958976",
        "meta_mean_motion": 13.42619963,
        "meta_eccentricity": 0.00941983,
        "meta_inclination": 90.0358,
        "meta_ra_of_asc_node": 20.2071,
        "meta_arg_of_pericenter": 278.0594,
        "meta_mean_anomaly": 195.7807,
        "meta_ephemeris_type": 0,
        "meta_classification_type": "U",
        "meta_norad_cat_id": 19419,
        "meta_element_set_no": 999,
        "meta_rev_at_epoch": 82491,
        "meta_bstar": 0.00019519513,
        "meta_mean_motion_dot": 1.22e-06,
        "meta_mean_motion_ddot": 0,
        "tle_line1": "1 19419U 88074A   25335.65231434  .00000122  00000+0  19520-3 0  9991",
        "tle_line2": "2 19419  90.0358  20.2071 0094198 278.0594 195.7807 13.42619963824914"
      },
      "geometry": {
        "type": "Point",
        "coordinates": [
          20.211091397454762,
          -2.6979814019793347
        ]
      }
    },
    {
      "type": "Feature",
      "properties": {
        "norad_id": 19420,
        "name": "OSCAR 31",
        "group": "nnss",
        "lat": -61.11322206636504,
        "lon": -159.5101927150278,
        "alt_km": 1046.4710894646314,
        "timestamp": "2025-12-02T07:10:09.383994+00:00",
        "meta_object_name": "OSCAR 31",
        "meta_object_id": "1988-074B",
        "meta_epoch": "2025-12-01T16:16:42.845088",
        "meta_mean_motion": 13.42581782,
        "meta_eccentricity": 0.0092422,
        "meta_inclination": 90.0375,
        "meta_ra_of_asc_node": 20.5555,
        "meta_arg_of_pericenter": 272.0976,
        "meta_mean_anomaly": 212.4422,
        "meta_ephemeris_type": 0,
        "meta_classification_type": "U",
        "meta_norad_cat_id": 19420,
        "meta_element_set_no": 999,
        "meta_rev_at_epoch": 82502,
        "meta_bstar": 0.00017408,
        "meta_mean_motion_dot": 1.09e-06,
        "meta_mean_motion_ddot": 0,
        "tle_line1": "1 19420U 88074B   25335.67827367  .00000109  00000+0  17408-3 0  9999",
        "tle_line2": "2 19420  90.0375  20.5555 0092422 272.0976 212.4422 13.42581782825021"
      },
      "geometry": {
        "type": "Point",
        "coordinates": [
          -159.5101927150278,
          -61.11322206636504
        ]
      }
    }
  ]
}